[{"OBJECT_NAME":"STARLINK-1821","OBJECT_ID":"2020-073BA","EPOCH":"2026-03-09T17:31:05.033568","MEAN_MOTION":15.37970474,"ECCENTRICITY":0.00041483,"INCLINATION":53.0488,"RA_OF_ASC_NODE":226.3874,"ARG_OF_PERICENTER":156.9798,"MEAN_ANOMALY":203.1391,"EPHEMERIS_TYPE":0,"CLASSIFICATION_TYPE":"U","NORAD_CAT_ID":46718,"ELEMENT_SET_NO":999,"REV_AT_EPOCH":29735,"BSTAR":0.0021811338,"MEAN_MOTION_DOT":0.00083201,"MEAN_MOTION_DDOT":0},{"OBJECT_NAME":"TRANSPORTER-12 OBJECT CL","OBJECT_ID":"2025-009CL","EPOCH":"2026-03-09T22:02:51.160416","MEAN_MOTION":15.38834312,"ECCENTRICITY":0.00028913,"INCLINATION":97.3807,"RA_OF_ASC_NODE":152.8971,"ARG_OF_PERICENTER":194.4406,"MEAN_ANOMALY":165.6757,"EPHEMERIS_TYPE":0,"CLASSIFICATION_TYPE":"U","NORAD_CAT_ID":62691,"ELEMENT_SET_NO":999,"REV_AT_EPOCH":6389,"BSTAR":0.0010087925,"MEAN_MOTION_DOT":0.00038813,"MEAN_MOTION_DDOT":0}]
